IRIDIUM 33 DEB          
1 34535U 97051JC  12015.12081552  .00003568  00000-0  10943-2 0  4924
2 34535  86.3493  26.2281 0010393 281.9687  78.0346 14.41428830152116
IRIDIUM 33 DEB          
1 34537U 97051JE  12014.46455005  .00012101  00000-0  24157-2 0  4958
2 34537  86.3340  13.8857 0078206 318.8179  40.7143 14.59900457154441
IRIDIUM 33 DEB          
1 34538U 97051JF  12014.79896892  .00000894  00000-0  36539-3 0  4479
2 34538  86.2806  27.5809 0041825 238.3912 121.3122 14.25741680151540
IRIDIUM 33 DEB          
1 34539U 97051JG  12014.52213514  .00016342  00000-0  56044-2 0  6070
2 34539  86.3650  41.2525 0092415 242.4109 116.7678 14.33668130151026
IRIDIUM 33 DEB          
1 34540U 97051JH  12014.13331385  .00001931  00000-0  56592-3 0  7940
2 34540  86.3278  20.8562 0030454 324.4111  35.5033 14.43186245152811
IRIDIUM 33 DEB          
1 34593U 97051JK  12014.09196719  .00004807  00000-0  18055-2 0  4496
2 34593  86.3968  41.9999 0037258 226.2998 133.5070 14.31041475151028
IRIDIUM 33 DEB          
1 34595U 97051JM  12014.45015223  .00046221  00000-0  80697-2 0  9445
2 34595  86.3596  31.5537 0055630 129.6815 230.9334 14.66692479154255
IRIDIUM 33 DEB          
1 34596U 97051JN  12014.97238458  .00044423  00000-0  49992-2 0  5609
2 34596  86.4106  18.7931 0051857 208.8767 150.9319 14.85476481154373
IRIDIUM 33 DEB          
1 34597U 97051JP  12014.06366495  .00006392  00000-0  18110-2 0  5244
2 34597  86.4516  40.3109 0039691 304.9970  54.7542 14.44956822152131
IRIDIUM 33 DEB          
1 34599U 97051JR  12014.50177553  .00007073  00000-0  12720-2 0  7015
2 34599  86.4083  22.9886 0074176 234.3782 125.0162 14.64713927153897
IRIDIUM 33 DEB          
1 34600U 97051JS  12014.52977987  .00033375  00000-0  59605-2 0  6385
2 34600  86.3886  28.5333 0014028 126.3199 233.9065 14.66714435152573
IRIDIUM 33 DEB          
1 34643U 97051JU  12014.51935345  .00002949  00000-0  10796-2 0  5923
2 34643  86.3898  38.2217 0037464 263.1770  96.4923 14.32222599148440
IRIDIUM 33 DEB          
1 34645U 97051JW  12015.00529465  .00008637  00000-0  23797-2 0  8582
2 34645  86.3490  24.1032 0019761  12.9779 347.1766 14.46674018149521
IRIDIUM 33 DEB          
1 34648U 97051JZ  12014.62747008  .00000371  00000-0  27588-3 0  5720
2 34648  86.4178  80.2204 0284003 171.2153 189.3979 13.74911687145928
IRIDIUM 33 DEB          
1 34650U 97051KB  12014.97241293  .00039383  00000-0  74511-2 0  6594
2 34650  86.2318   4.2631 0092731 331.3140  28.0511 14.61404968153707
IRIDIUM 33 DEB          
1 34651U 97051KC  12014.58997477  .00002094  00000-0  13897-2 0  7314
2 34651  86.2932  55.6139 0216027  81.6451 280.9106 13.90212397147075
IRIDIUM 33 DEB          
1 34652U 97051KD  12013.80797009  .00001186  00000-0  36869-3 0  4423
2 34652  86.3389  24.6126 0039379 286.4784  73.2027 14.39829555151470
IRIDIUM 33 DEB          
1 34653U 97051KE  12013.82939586  .00013166  00000-0  52066-2 0  4285
2 34653  86.3695  45.2577 0098326 286.6818  72.2389 14.26259126149404
IRIDIUM 33 DEB          
1 34654U 97051KF  12013.52841550  .00009253  00000-0  31308-2 0  5218
2 34654  86.4574  47.5055 0040615 211.3125 148.5573 14.36272336148716
IRIDIUM 33 DEB          
1 34655U 97051KG  11363.11236354  .02085543  00000-0  78146-1 0  7918
2 34655  86.3812  50.1674 0021575 279.9507  79.9758 15.27078349137096
IRIDIUM 33 DEB          
1 34656U 97051KH  12010.47014594  .00461531  00000-0  24336-1 0  6912
2 34656  86.3385  20.4204 0023782  17.2365 342.9520 15.13162686153853
IRIDIUM 33 DEB          
1 34657U 97051KJ  12014.48763717  .00005031  00000-0  15682-2 0  4626
2 34657  86.3321  25.7831 0041017  94.2999 266.2882 14.40243620150793
IRIDIUM 33 DEB          
1 34658U 97051KK  12014.79054636  .00015924  00000-0  34872-2 0  6754
2 34658  86.3609  20.7490 0036426 278.7724  80.9052 14.57195453152736
IRIDIUM 33 DEB          
1 34659U 97051KL  12013.03547802  .00072148  00000-0  12775-1 0  7190
2 34659  86.3342  30.1498 0046148 205.2245 154.6278 14.66231643149893
IRIDIUM 33 DEB          
1 34690U 97051KM  12014.49505211  .00001799  00000-0  63805-3 0  7044
2 34690  86.3877  35.5212 0012367 242.7294 117.2549 14.33940422148677
IRIDIUM 33 DEB          
1 34693U 97051KQ  12014.04470084  .00002749  00000-0  83467-3 0  6712
2 34693  86.3425  24.4378 0029627 297.7418  62.0740 14.41635662149738
IRIDIUM 33 DEB          
1 34694U 97051KR  12014.52454895  .00009507  00000-0  29185-2 0  8412
2 34694  86.4358  41.0335 0051470 141.0274 219.4614 14.40770281149201
IRIDIUM 33 DEB          
1 34696U 97051KT  12013.04658983  .00002916  00000-0  17538-2 0  6069
2 34696  86.2110  39.6211 0164981  45.5426 315.9116 13.99946351147856
IRIDIUM 33 DEB          
1 34697U 97051KU  12013.59561213  .00006739  00000-0  24938-2 0  5393
2 34697  86.4592  51.8752 0093954 279.5667  79.4957 14.29801331146841
IRIDIUM 33 DEB          
1 34698U 97051KV  12015.03688412  .00006062  00000-0  19908-2 0  7028
2 34698  86.3784  32.8969 0019703 218.0129 141.9431 14.38077368148236
IRIDIUM 33 DEB          
1 34700U 97051KX  12015.04322909  .00009954  00000-0  25365-2 0  7554
2 34700  86.4050  30.3538 0068206  40.6550 319.9688 14.49111463149106
IRIDIUM 33 DEB          
1 34701U 97051KY  12014.02146580  .00013611  00000-0  39728-2 0  7891
2 34701  86.3805  33.5698 0018755 152.0210 208.1655 14.43901788148182
IRIDIUM 33 DEB          
1 34702U 97051KZ  12014.96886875  .00002802  00000-0  76319-3 0  4382
2 34702  86.3103  16.6662 0049294 277.0190  82.5636 14.46423376152479
IRIDIUM 33 DEB          
1 34703U 97051LA  12014.48795112  .00014088  00000-0  38252-2 0  6286
2 34703  86.3784  32.0061 0021354  96.0207 264.3076 14.47358188148488
IRIDIUM 33 DEB          
1 34704U 97051LB  12015.01056046  .00011524  00000-0  28102-2 0  7458
2 34704  86.4168  30.2684 0022520 329.9206  30.0156 14.52446926148964
IRIDIUM 33 DEB          
1 34705U 97051LC  12014.43681127  .00003032  00000-0  12146-2 0  3056
2 34705  86.4948  55.3419 0043853 268.5271  91.0602 14.27526328149913
IRIDIUM 33 DEB          
1 34706U 97051LD  12014.05860711  .00004281  00000-0  12041-2 0  4673
2 34706  86.3259  21.7582 0042625  35.3502 325.0442 14.45166274151532
IRIDIUM 33 DEB          
1 34709U 97051LG  12014.45611754  .00004724  00000-0  14924-2 0  6329
2 34709  86.3510  27.9917 0014574 224.2689 135.6962 14.40009892151025
IRIDIUM 33 DEB          
1 34764U 97051LH  12014.02531142  .00003932  00000-0  13303-2 0  6549
2 34764  86.3777  34.8427 0017156 201.8630 158.1760 14.36556723149758
IRIDIUM 33 DEB          
1 34765U 97051LJ  12014.07049200  .00000805  00000-0  29692-3 0  6369
2 34765  86.3398  30.8454 0015982 236.8364 123.1238 14.31288996148357
IRIDIUM 33 DEB          
1 34767U 97051LL  12015.03650313  .00017769  00000-0  45184-2 0  6620
2 34767  86.4708  42.3191 0042373  76.3189 284.2385 14.50064766150563
IRIDIUM 33 DEB          
1 34769U 97051LN  12014.46109491  .00085585  00000-0  20632-1 0  3509
2 34769  86.0272  39.1721 0157670  25.5926 335.3102 14.45439918144851
IRIDIUM 33 DEB          
1 34771U 97051LQ  12014.08336083  .00020575  00000-0  51411-2 0  5363
2 34771  86.3927  36.7670 0041051 195.2959 164.6132 14.50914080149626
IRIDIUM 33 DEB          
1 34772U 97051LR  12015.00962431  .00007414  00000-0  18687-2 0  4879
2 34772  86.4030  29.4416 0026241 301.6876  58.1702 14.50813963150759
IRIDIUM 33 DEB          
1 34773U 97051LS  12015.06140729  .00002204  00000-0  78267-3 0  4417
2 34773  86.4156  39.8103 0017303 172.4397 187.7009 14.33936031152730
IRIDIUM 33 DEB          
1 34774U 97051LT  12014.56092392  .00002291  00000-0  76250-3 0  7772
2 34774  86.4410  40.2568 0009668 161.7629 198.3898 14.37259896152554
IRIDIUM 33 DEB          
1 34775U 97051LU  12014.52594043  .00002450  00000-0  93995-3 0  5881
2 34775  86.3851  38.7667 0038857 222.5338 137.2804 14.29748061149968
IRIDIUM 33 DEB          
1 34776U 97051LV  12014.06631190  .00009358  00000-0  24509-2 0  6616
2 34776  86.3864  29.1055 0029261 340.2546  19.7415 14.48959224149807
IRIDIUM 33 DEB          
1 34825U 97051LZ  12014.08895720  .00003512  00000-0  12581-2 0  5368
2 34825  86.3810  35.8642 0018246 202.6361 157.3854 14.33655524148115
IRIDIUM 33 DEB          
1 34827U 97051MB  12014.46635395  .00007314  00000-0  24936-2 0  4407
2 34827  86.3882  36.3398 0028482 151.7389 208.5196 14.36115224148341
IRIDIUM 33 DEB          
1 34828U 97051MC  12013.70884768  .00012070  00000-0  28409-2 0  3913
2 34828  86.1622 356.7245 0055557 253.0287 106.4409 14.53310629150248
IRIDIUM 33 DEB          
1 34829U 97051MD  12014.45311748  .00034286  00000-0  27382-2 0  2674
2 34829  86.4770  23.4196 0147939 116.7879 244.8727 14.91822236151141
IRIDIUM 33 DEB          
1 34831U 97051MF  12015.04080688  .00014703  00000-0  44132-2 0  6756
2 34831  86.3510  36.5003 0124073 205.4896 153.9978 14.38246220144780
IRIDIUM 33 DEB          
1 34832U 97051MG  12015.04606577  .00012648  00000-0  32645-2 0  5603
2 34832  86.4138  32.2981 0019972 358.5574   1.5303 14.49794720146664
IRIDIUM 33 DEB          
1 34833U 97051MH  12015.05445900  .00001191  00000-0  41505-3 0  6075
2 34833  86.3955  35.6188 0022698 276.2265  83.6344 14.34449708145852
IRIDIUM 33 DEB          
1 34835U 97051MK  12015.07020309  .00019048  00000-0  54104-2 0  6866
2 34835  86.4262  41.6163 0040791 187.2770 172.7519 14.44813497148311
IRIDIUM 33 DEB          
1 34866U 97051ML  12012.46924853  .00010931  00000-0  29713-2 0  3325
2 34866  86.3424  25.1201 0018934  82.2348 278.0615 14.47335714147379
IRIDIUM 33 DEB          
1 34867U 97051MM  12014.95699209  .00020162  00000-0  46239-2 0  3213
2 34867  86.2532  11.7673 0092629  47.2301 313.5770 14.52810504149219
IRIDIUM 33 DEB          
1 34868U 97051MN  12013.57219508  .00005691  00000-0  21390-2 0  3223
2 34868  86.5447  65.1824 0179524 336.1739  23.0452 14.22917137145655
IRIDIUM 33 DEB          
1 34869U 97051MP  12014.55995128  .00006164  00000-0  29884-2 0  4102
2 34869  86.4595  58.2666 0080880 304.5282  54.8155 14.16552095143688
